[{"OBJECT_NAME":"STARLINK-3120","OBJECT_ID":"2021-104M","EPOCH":"2026-03-09T18:14:03.876576","MEAN_MOTION":15.08840946,"ECCENTRICITY":0.00012402,"INCLINATION":53.2166,"RA_OF_ASC_NODE":228.8096,"ARG_OF_PERICENTER":91.1489,"MEAN_ANOMALY":268.9645,"EPHEMERIS_TYPE":0,"CLASSIFICATION_TYPE":"U","NORAD_CAT_ID":49419,"ELEMENT_SET_NO":999,"REV_AT_EPOCH":23863,"BSTAR":4.3680992e-5,"MEAN_MOTION_DOT":4.07e-6,"MEAN_MOTION_DDOT":0},{"OBJECT_NAME":"OBJECT F","OBJECT_ID":"2025-292F","EPOCH":"2026-03-09T22:41:00.950496","MEAN_MOTION":15.06065121,"ECCENTRICITY":0.00151037,"INCLINATION":97.6416,"RA_OF_ASC_NODE":145.7425,"ARG_OF_PERICENTER":346.7214,"MEAN_ANOMALY":13.3613,"EPHEMERIS_TYPE":0,"CLASSIFICATION_TYPE":"U","NORAD_CAT_ID":66998,"ELEMENT_SET_NO":999,"REV_AT_EPOCH":1351,"BSTAR":0.00047210602,"MEAN_MOTION_DOT":6.85e-5,"MEAN_MOTION_DDOT":0}]
